SL-16 R/B               
1 22566U 93016B   25359.49788294  .00000281  00000+0  16877-3 0  9997
2 22566  71.0084  11.0073 0008044  72.2662 287.9338 14.15292962691676
COSMOS 2242             
1 22626U 93024A   25359.34313087  .00002378  00000+0  20844-3 0  9999
2 22626  82.5196 337.7972 0015928 189.2139 170.8794 14.96156581769270
SL-16 R/B               
1 22803U 93059B   25359.86037725  .00000308  00000+0  17622-3 0  9994
2 22803  70.9884 166.8178 0018620 317.1124  42.8546 14.17216349669071
ARIANE 40 R/B           
1 22830U 93061H   25359.81675336  .00000278  00000+0  11788-3 0  9991
2 22830  98.5059  65.1078 0011545 139.1054 221.0998 14.32810024683529
COSMOS 2278             
1 23087U 94023A   25359.62005558  .00000079  00000+0  66151-4 0  9991
2 23087  71.0534 330.0621 0007785 156.4486 203.6995 14.14348579634337
SL-16 R/B               
1 23088U 94023B   25359.84159860 -.00000231  00000+0 -94768-4 0  9999
2 23088  70.9976 225.9723 0002099   2.9565 357.1569 14.14999397635644
SL-16 R/B               
1 23343U 94074B   25359.67208442  .00000493  00000+0  72915-4 0  9999
2 23343  97.7189  28.4619 0008044 100.5123  14.6614 14.79303842676301
SL-16 R/B               
1 23405U 94077B   25359.85202021 -.00000202  00000+0 -78941-4 0  9993
2 23405  70.9822 147.8288 0005046 274.6288  85.4258 14.15552036605784
ARIANE 40+ R/B          
1 23561U 95021B   25359.81204080  .00000329  00000+0  11889-3 0  9994
2 23561  98.4635  67.2424 0006786  13.3378  97.7031 14.39705213608614
SL-16 R/B               
1 23705U 95058B   25359.29001954 -.00000160  00000+0 -57651-4 0  9994
2 23705  71.0217 336.4546 0014631 238.7929 121.1761 14.15481425557329
SL-16 R/B               
1 24298U 96051B   25359.23660182 -.00000013  00000+0  19464-4 0  9990
2 24298  70.7595 332.8311 0019488 246.0305 113.8774 14.12397574511136
ORBVIEW 2 (SEASTAR)     
1 24883U 97037A   25359.46231464  .00000302  00000+0  12133-3 0  9992
2 24883  98.8463 156.8575 0001223 285.0583  75.0466 14.35425810497822
